{
    "links": {
        "self": "http://www.neowsapp.com/rest/v1/neo/3582864?api_key=iIulBulltgU6a56xZRHN4H3l9WmuAYTsLGpBGhQ2"
    },
    "id": "3582864",
    "neo_reference_id": "3582864",
    "name": "(2011 UV114)",
    "designation": "2011 UV114",
    "nasa_jpl_url": "http://ssd.jpl.nasa.gov/sbdb.cgi?sstr=3582864",
    "absolute_magnitude_h": 25.9,
    "estimated_diameter": {
        "kilometers": {
            "estimated_diameter_min": 0.0175612318,
            "estimated_diameter_max": 0.0392681082
        },
        "meters": {
            "estimated_diameter_min": 17.561231848,
            "estimated_diameter_max": 39.2681081809
        },
        "miles": {
            "estimated_diameter_min": 0.0109120402,
            "estimated_diameter_max": 0.0244000636
        },
        "feet": {
            "estimated_diameter_min": 57.6155918963,
            "estimated_diameter_max": 128.8323800441
        }
    },
    "is_potentially_hazardous_asteroid": false,
    "close_approach_data": [
        {
            "close_approach_date": "1920-10-18",
            "close_approach_date_full": "1920-Oct-18 18:56",
            "epoch_date_close_approach": -1552712640000,
            "relative_velocity": {
                "kilometers_per_second": "8.1572908611",
                "kilometers_per_hour": "29366.2471000931",
                "miles_per_hour": "18247.0439272773"
            },
            "miss_distance": {
                "astronomical": "0.0595755342",
                "lunar": "23.1748828038",
                "kilometers": "8912373.020432154",
                "miles": "5537891.7994415652"
            },
            "orbiting_body": "Earth"
        },
        {
            "close_approach_date": "2011-10-21",
            "close_approach_date_full": "2011-Oct-21 05:38",
            "epoch_date_close_approach": 1319175480000,
            "relative_velocity": {
                "kilometers_per_second": "8.2581504499",
                "kilometers_per_hour": "29729.3416197734",
                "miles_per_hour": "18472.6567414642"
            },
            "miss_distance": {
                "astronomical": "0.0614587188",
                "lunar": "23.9074416132",
                "kilometers": "9194093.425408956",
                "miles": "5712944.7417813528"
            },
            "orbiting_body": "Earth"
        },
        {
            "close_approach_date": "2102-11-08",
            "close_approach_date_full": "2102-Nov-08 16:39",
            "epoch_date_close_approach": 4192447140000,
            "relative_velocity": {
                "kilometers_per_second": "14.7973416786",
                "kilometers_per_hour": "53270.4300429596",
                "miles_per_hour": "33100.1736008601"
            },
            "miss_distance": {
                "astronomical": "0.4033450941",
                "lunar": "156.9012416049",
                "kilometers": "60339566.952309567",
                "miles": "37493268.3182113446"
            },
            "orbiting_body": "Earth"
        }
    ],
    "orbital_data": {
        "orbit_id": "4",
        "orbit_determination_date": "2017-04-06 08:52:16",
        "first_observation_date": "2011-10-22",
        "last_observation_date": "2011-10-25",
        "data_arc_in_days": 3,
        "observations_used": 14,
        "orbit_uncertainty": "8",
        "minimum_orbit_intersection": ".0583686",
        "jupiter_tisserand_invariant": "4.691",
        "epoch_osculation": "2455858.5",
        "eccentricity": ".2473534919359929",
        "semi_major_axis": "1.399773812534243",
        "inclination": "14.29744413813499",
        "ascending_node_longitude": "27.80476496042031",
        "orbital_period": "604.9022826351861",
        "perihelion_distance": "1.05353487208334",
        "perihelion_argument": "355.1663297018077",
        "aphelion_distance": "1.746012752985146",
        "perihelion_time": "2455852.524403974331",
        "mean_anomaly": "3.556300961321099",
        "mean_motion": ".5951374467156944",
        "equinox": "J2000",
        "orbit_class": {
            "orbit_class_type": "AMO",
            "orbit_class_description": "Near-Earth asteroid orbits similar to that of 1221 Amor",
            "orbit_class_range": "1.017 AU < q (perihelion) < 1.3 AU"
        }
    },
    "is_sentry_object": false
}